{"fetched_at":"2026-07-17T17:38:09.969Z","source":"https://celestrak.org/NORAD/elements/gp.php?NAME=EROS&FORMAT=JSON","constellation":"eros","records":[{"OBJECT_NAME":"EROS C3","OBJECT_ID":"2022-179A","EPOCH":"2026-07-17T07:05:29.419296","CLASSIFICATION_TYPE":"U","MEAN_MOTION":15.11044704,"ECCENTRICITY":0.000776,"INCLINATION":139.3347,"RA_OF_ASC_NODE":176.8932,"ARG_OF_PERICENTER":195.2792,"MEAN_ANOMALY":164.7781,"EPHEMERIS_TYPE":0,"NORAD_CAT_ID":54880,"ELEMENT_SET_NO":999,"REV_AT_EPOCH":19688,"BSTAR":0.00014502721,"MEAN_MOTION_DOT":0.0000271,"MEAN_MOTION_DDOT":0}]}
