EROS C3                 
1 54880U 22179A   26198.29547939  .00002710  00000+0  14503-3 0  9995
2 54880 139.3347 176.8932 0007760 195.2792 164.7781 15.11044704196881
